[{"OBJECT_NAME":"OTB-3-GAZELLE","OBJECT_ID":"2022-127A","EPOCH":"2026-03-09T22:46:18.860160","MEAN_MOTION":14.42635336,"ECCENTRICITY":0.00141015,"INCLINATION":98.3911,"RA_OF_ASC_NODE":62.1873,"ARG_OF_PERICENTER":125.0273,"MEAN_ANOMALY":235.2243,"EPHEMERIS_TYPE":0,"CLASSIFICATION_TYPE":"U","NORAD_CAT_ID":54023,"ELEMENT_SET_NO":999,"REV_AT_EPOCH":18005,"BSTAR":6.3190972e-5,"MEAN_MOTION_DOT":1.67e-6,"MEAN_MOTION_DDOT":0},{"OBJECT_NAME":"METEOR 2-8 DEB","OBJECT_ID":"1982-025V","EPOCH":"2026-03-08T05:31:15.265056","MEAN_MOTION":14.33393144,"ECCENTRICITY":0.00341566,"INCLINATION":82.4961,"RA_OF_ASC_NODE":246.8101,"ARG_OF_PERICENTER":265.7839,"MEAN_ANOMALY":93.9445,"EPHEMERIS_TYPE":0,"CLASSIFICATION_TYPE":"U","NORAD_CAT_ID":36335,"ELEMENT_SET_NO":999,"REV_AT_EPOCH":9577,"BSTAR":0.0032482661,"MEAN_MOTION_DOT":9.037e-5,"MEAN_MOTION_DDOT":0}]
